NORAD_CAT_ID,OBJECT_NAME,OBJECT_TYPE,EPOCH,MEAN_MOTION,ECCENTRICITY,INCLINATION,RA_OF_ASC_NODE,ARG_OF_PERICENTER,MEAN_ANOMALY,BSTAR,MEAN_MOTION_DOT,MEAN_MOTION_DDOT,TLE_LINE0,TLE_LINE1,TLE_LINE2,SEMIMAJOR_AXIS,PERIOD,APOGEE,PERIGEE,DECAYED
55929.0,STARLINK-5898,PAYLOAD,2023-05-24 14:00:01,14.98331362,0.0002556,70.0009,356.3785,268.3129,256.1371,0.00069239,8.178e-05,0.0,0 STARLINK-5898,1 55929U 23037R   23144.58335648  .00008178  00000-0  69239-3 0  9997,2 55929  70.0009 356.3785 0002556 268.3129 256.1371 14.98331362 11034,6950.189,96.107,573.83,570.277,0.0
55929.0,STARLINK-5898,PAYLOAD,2023-05-24 22:00:00,14.98312002,0.0002578,70.0007,355.5382,276.7805,245.1041,0.0020641,0.0002461,0.0,0 STARLINK-5898,1 55929U 23037R   23144.91667824  .00024610  00000-0  20641-2 0  9990,2 55929  70.0007 355.5382 0002578 276.7805 245.1041 14.98312002  1305,6950.249,96.108,573.905,570.322,0.0
55929.0,STARLINK-5898,PAYLOAD,2023-05-25 14:00:01,14.98339798,0.0002506,70.001,353.8571,269.7116,247.1277,0.0011391,0.00013528,0.0,0 STARLINK-5898,1 55929U 23037R   23145.58334491  .00013528  00000-0  11391-2 0  9993,2 55929  70.0010 353.8571 0002506 269.7116 247.1277 14.98339798 11189,6950.163,96.106,573.769,570.286,0.0
55929.0,STARLINK-5898,PAYLOAD,2023-05-26 00:00:02,14.98321448,0.000258,70.001,352.8062,280.4794,323.3054,0.00036075,4.213e-05,0.0,0 STARLINK-5898,1 55929U 23037R   23146.00002315  .00004213  00000-0  36075-3 0  9996,2 55929  70.0010 352.8062 0002580 280.4794 323.3054 14.98321448  1303,6950.219,96.108,573.877,570.291,0.0
55929.0,STARLINK-5898,PAYLOAD,2023-05-26 06:00:00,14.98331429,0.0002525,70.0007,352.1759,277.2168,234.6106,-0.0031666,-0.00037674,0.0,0 STARLINK-5898,1 55929U 23037R   23146.25001157 -.00037674  00000-0 -31666-2 0  9995,2 55929  70.0007 352.1759 0002525 277.2168 234.6106 14.98331429 11283,6950.188,96.107,573.808,570.299,0.0
55929.0,STARLINK-5898,PAYLOAD,2023-05-26 14:00:01,14.98326227,0.0002519,70.0011,351.3355,271.8828,237.4071,0.00082471,9.76e-05,0.0,0 STARLINK-5898,1 55929U 23037R   23146.58334491  .00009760  00000-0  82471-3 0  9995,2 55929  70.0011 351.3355 0002519 271.8828 237.4071 14.98326227  1301,6950.205,96.107,573.82,570.319,0.0
55929.0,STARLINK-5898,PAYLOAD,2023-05-26 22:00:01,14.98310081,0.0002598,70.0011,350.4949,279.6537,227.1805,0.0023183,0.00027663,0.0,0 STARLINK-5898,1 55929U 23037R   23146.91668981  .00027663  00000-0  23183-2 0  9992,2 55929  70.0011 350.4949 0002598 279.6537 227.1805 14.98310081 11381,6950.254,96.108,573.925,570.314,0.0
55929.0,STARLINK-5898,PAYLOAD,2023-05-27 22:00:00,14.98324991,0.0002679,70.0011,347.9735,278.7192,220.5008,0.0011676,0.00013864,0.0,0 STARLINK-5898,1 55929U 23037R   23147.91667824  .00013864  00000-0  11676-2 0  9990,2 55929  70.0011 347.9735 0002679 278.7192 220.5008 14.98324991 11536,6950.208,96.107,573.935,570.211,0.0
55929.0,STARLINK-5898,PAYLOAD,2023-05-27 22:58:59,14.98333076,0.0002521,69.999,347.8702,275.6871,84.4001,-1.3404e-05,-2.53e-06,0.0,0 STARLINK-5898,1 55929U 23037R   23147.95763452 -.00000253  00000-0 -13404-4 0  9991,2 55929  69.9990 347.8702 0002521 275.6871  84.4001 14.98333076 11194,6950.183,96.107,573.801,570.296,0.0
55929.0,STARLINK-5898,PAYLOAD,2023-05-28 18:12:36,14.98329391,0.0002574,69.9989,345.8501,275.8327,84.2538,8.2457e-05,8.91e-06,0.0,0 STARLINK-5898,1 55929U 23037R   23148.75875353  .00000891  00000-0  82457-4 0  9994,2 55929  69.9989 345.8501 0002574 275.8327  84.2538 14.98329391 11652,6950.195,96.107,573.849,570.271,0.0
55929.0,STARLINK-5898,PAYLOAD,2023-05-28 21:24:52,14.98331616,0.000258,69.9989,345.5136,276.1083,83.9782,0.00010267,1.132e-05,0.0,0 STARLINK-5898,1 55929U 23037R   23148.89227144  .00001132  00000-0  10267-3 0  9996,2 55929  69.9989 345.5136 0002580 276.1083  83.9782 14.98331616 11338,6950.188,96.107,573.846,570.26,0.0
55929.0,STARLINK-5898,PAYLOAD,2023-05-29 15:02:21,14.98327268,0.000252,69.9991,343.6619,276.4805,83.6067,-4.2131e-05,-5.96e-06,0.0,0 STARLINK-5898,1 55929U 23037R   23149.62663806 -.00000596  00000-0 -42131-4 0  9998,2 55929  69.9991 343.6619 0002520 276.4805  83.6067 14.98327268 11448,6950.201,96.107,573.818,570.315,0.0
55929.0,STARLINK-5898,PAYLOAD,2023-05-29 19:50:45,14.98327673,0.0002457,69.9993,343.1572,275.5019,84.586,-4.6475e-05,-6.47e-06,0.0,0 STARLINK-5898,1 55929U 23037R   23149.82691810 -.00000647  00000-0 -46475-4 0  9998,2 55929  69.9993 343.1572 0002457 275.5019  84.5860 14.98327673 11473,6950.2,96.107,573.773,570.357,0.0
55929.0,STARLINK-5898,PAYLOAD,2023-05-29 23:03:01,14.98327776,0.0002465,69.9993,342.8205,275.726,84.3618,-4.4495e-05,-6.24e-06,0.0,0 STARLINK-5898,1 55929U 23037R   23149.96043810 -.00000624  00000-0 -44495-4 0  9999,2 55929  69.9993 342.8205 0002465 275.7260  84.3618 14.98327776 11834,6950.2,96.107,573.778,570.352,0.0
55929.0,STARLINK-5898,PAYLOAD,2023-05-30 15:04:22,14.98333542,0.0002469,69.9993,341.1375,275.4971,84.5907,-1.5649e-05,-2.8e-06,0.0,0 STARLINK-5898,1 55929U 23037R   23150.62803304 -.00000280  00000-0 -15649-4 0  9993,2 55929  69.9993 341.1375 0002469 275.4971  84.5907 14.98333542 11936,6950.182,96.107,573.763,570.331,0.0
55929.0,STARLINK-5898,PAYLOAD,2023-05-30 21:28:54,14.9833333,0.0002475,69.9993,340.4641,275.7318,84.3559,-1.4374e-05,-2.64e-06,0.0,0 STARLINK-5898,1 55929U 23037R   23150.89507259 -.00000264  00000-0 -14374-4 0  9998,2 55929  69.9993 340.4641 0002475 275.7318  84.3559 14.98333330 11632,6950.183,96.107,573.768,570.327,0.0
55929.0,STARLINK-5898,PAYLOAD,2023-05-31 13:30:14,14.9832967,0.0002582,69.9989,338.7806,272.2526,87.8337,3.9466e-05,3.78e-06,0.0,0 STARLINK-5898,1 55929U 23037R   23151.56267195  .00000378  00000-0  39466-4 0  9998,2 55929  69.9989 338.7806 0002582 272.2526  87.8337 14.98329670 11737,6950.194,96.107,573.853,570.264,0.0
55929.0,STARLINK-5898,PAYLOAD,2023-05-31 18:18:38,14.9833039,0.0002584,69.9989,338.2757,271.3531,88.7332,4.4097e-05,4.33e-06,0.0,0 STARLINK-5898,1 55929U 23037R   23151.76295122  .00000433  00000-0  44097-4 0  9999,2 55929  69.9989 338.2757 0002584 271.3531  88.7332 14.98330390 12103,6950.192,96.107,573.853,570.261,0.0
55929.0,STARLINK-5898,PAYLOAD,2023-05-31 21:30:55,14.98330556,0.0002584,69.9989,337.939,271.4126,88.6737,4.3683e-05,4.28e-06,0.0,0 STARLINK-5898,1 55929U 23037R   23151.89647102  .00000428  00000-0  43683-4 0  9996,2 55929  69.9989 337.9390 0002584 271.4126  88.6737 14.98330556 11788,6950.191,96.107,573.852,570.26,0.0
55929.0,STARLINK-5898,PAYLOAD,2023-06-01 05:31:35,14.98329529,0.000258,69.9989,337.0973,271.5312,88.5552,2.0852e-05,1.56e-06,0.0,0 STARLINK-5898,1 55929U 23037R   23152.23027205  .00000156  00000-0  20852-4 0  9992,2 55929  69.9989 337.0973 0002580 271.5312  88.5552 14.98329529 11838,6950.194,96.107,573.852,570.266,0.0
55929.0,STARLINK-5898,PAYLOAD,2023-06-01 21:32:56,14.98329998,0.0002564,69.9989,335.4137,269.1779,90.9086,-3.3926e-05,-4.98e-06,0.0,0 STARLINK-5898,1 55929U 23037R   23152.89787257 -.00000498  00000-0 -33926-4 0  9991,2 55929  69.9989 335.4137 0002564 269.1779  90.9086 14.98329998 12272,6950.193,96.107,573.84,570.276,0.0
55929.0,STARLINK-5898,PAYLOAD,2023-06-02 13:34:17,14.98326017,0.0002565,69.9987,333.7298,267.6583,92.4283,-4.2462e-05,-5.99e-06,0.0,0 STARLINK-5898,1 55929U 23037R   23153.56547562 -.00000599  00000-0 -42462-4 0  9996,2 55929  69.9987 333.7298 0002565 267.6583  92.4283 14.98326017 12035,6950.205,96.107,573.853,570.287,0.0
55929.0,STARLINK-5898,PAYLOAD,2023-06-02 21:34:57,14.98325885,0.0002572,69.9988,332.8873,264.982,95.1046,-4.4953e-05,-6.29e-06,0.0,0 STARLINK-5898,1 55929U 23037R   23153.89927607 -.00000629  00000-0 -44953-4 0  9995,2 55929  69.9988 332.8873 0002572 264.9820  95.1046 14.98325885 12081,6950.206,96.107,573.858,570.283,0.0
55929.0,STARLINK-5898,PAYLOAD,2023-06-03 13:36:17,14.98327494,0.0002698,69.9984,331.2041,266.674,93.411,2.7976e-05,2.41e-06,0.0,0 STARLINK-5898,1 55929U 23037R   23154.56687366  .00000241  00000-0  27976-4 0  9999,2 55929  69.9984 331.2041 0002698 266.6740  93.4110 14.98327494 12188,6950.201,96.107,573.941,570.19,0.0
55929.0,STARLINK-5898,PAYLOAD,2023-06-03 21:36:58,14.9832968,0.0002755,69.9986,330.3628,267.7326,92.3518,1.6323e-05,1.02e-06,0.0,0 STARLINK-5898,1 55929U 23037R   23154.90067298  .00000102  00000-0  16323-4 0  9993,2 55929  69.9986 330.3628 0002755 267.7326  92.3518 14.98329680 12232,6950.194,96.107,573.974,570.144,0.0
55929.0,STARLINK-5898,PAYLOAD,2023-06-03 23:13:06,14.9833017,0.0002764,69.9986,330.1945,267.8296,92.2546,2.1209e-05,1.6e-06,0.0,0 STARLINK-5898,1 55929U 23037R   23154.96743253  .00000160  00000-0  21209-4 0  9994,2 55929  69.9986 330.1945 0002764 267.8296  92.2546 14.98330170 12583,6950.192,96.107,573.978,570.136,0.0
55929.0,STARLINK-5898,PAYLOAD,2023-06-04 13:38:18,14.98330215,0.0002834,69.9986,328.6796,267.9541,92.1294,3.8413e-05,3.65e-06,0.0,0 STARLINK-5898,1 55929U 23037R   23155.56827210  .00000365  00000-0  38413-4 0  9999,2 55929  69.9986 328.6796 0002834 267.9541  92.1294 14.98330215 12333,6950.192,96.107,574.027,570.088,0.0
55929.0,STARLINK-5898,PAYLOAD,2023-06-04 21:38:58,14.98333758,0.0002821,69.9989,327.838,268.0771,92.0065,7.1367e-05,7.59e-06,0.0,0 STARLINK-5898,1 55929U 23037R   23155.90206852  .00000759  00000-0  71367-4 0  9992,2 55929  69.9989 327.8380 0002821 268.0771  92.0065 14.98333758 12384,6950.181,96.107,574.007,570.086,0.0
55929.0,STARLINK-5898,PAYLOAD,2023-06-05 10:28:03,14.98328908,0.0002749,69.9992,326.4913,268.2774,91.807,-1.24e-05,-2.41e-06,0.0,0 STARLINK-5898,1 55929U 23037R   23156.43615366 -.00000241  00000-0 -12400-4 0  9996,2 55929  69.9992 326.4913 0002749 268.2774  91.8070 14.98328908 12800,6950.196,96.107,573.972,570.151,0.0
55929.0,STARLINK-5898,PAYLOAD,2023-06-05 13:40:19,14.98328649,0.0002753,69.9992,326.1546,268.2454,91.839,-1.4843e-05,-2.7e-06,0.0,0 STARLINK-5898,1 55929U 23037R   23156.56967385 -.00000270  00000-0 -14843-4 0  9996,2 55929  69.9992 326.1546 0002753 268.2454  91.8390 14.98328649 12480,6950.197,96.107,573.975,570.149,0.0
